[{"OBJECT_NAME":"METEOSAT-11 (MSG-4)","OBJECT_ID":"2015-034A","EPOCH":"2026-04-25T22:12:44.312832","MEAN_MOTION":1.00263852,"ECCENTRICITY":0.00016038,"INCLINATION":3.071,"RA_OF_ASC_NODE":71.3804,"ARG_OF_PERICENTER":344.5095,"MEAN_ANOMALY":140.8296,"EPHEMERIS_TYPE":0,"CLASSIFICATION_TYPE":"U","NORAD_CAT_ID":40732,"ELEMENT_SET_NO":999,"REV_AT_EPOCH":669,"BSTAR":0,"MEAN_MOTION_DOT":5.2e-7,"MEAN_MOTION_DDOT":0},{"OBJECT_NAME":"ELEKTRO-L 2","OBJECT_ID":"2015-074A","EPOCH":"2026-04-25T16:57:49.817376","MEAN_MOTION":1.00270542,"ECCENTRICITY":0.00022984,"INCLINATION":6.5646,"RA_OF_ASC_NODE":71.154,"ARG_OF_PERICENTER":254.2871,"MEAN_ANOMALY":128.2279,"EPHEMERIS_TYPE":0,"CLASSIFICATION_TYPE":"U","NORAD_CAT_ID":41105,"ELEMENT_SET_NO":999,"REV_AT_EPOCH":3798,"BSTAR":0,"MEAN_MOTION_DOT":-1.27e-6,"MEAN_MOTION_DDOT":0},{"OBJECT_NAME":"INSAT-3DR","OBJECT_ID":"2016-054A","EPOCH":"2026-04-25T23:31:43.073760","MEAN_MOTION":1.00271318,"ECCENTRICITY":0.00116609,"INCLINATION":0.1129,"RA_OF_ASC_NODE":86.1844,"ARG_OF_PERICENTER":195.1084,"MEAN_ANOMALY":359.6159,"EPHEMERIS_TYPE":0,"CLASSIFICATION_TYPE":"U","NORAD_CAT_ID":41752,"ELEMENT_SET_NO":999,"REV_AT_EPOCH":3529,"BSTAR":0,"MEAN_MOTION_DOT":-9.0e-7,"MEAN_MOTION_DDOT":0},{"OBJECT_NAME":"HIMAWARI-9","OBJECT_ID":"2016-064A","EPOCH":"2026-04-25T22:50:10.724064","MEAN_MOTION":1.00273826,"ECCENTRICITY":8.498e-5,"INCLINATION":0.0351,"RA_OF_ASC_NODE":130.9871,"ARG_OF_PERICENTER":265.1317,"MEAN_ANOMALY":301.1521,"EPHEMERIS_TYPE":0,"CLASSIFICATION_TYPE":"U","NORAD_CAT_ID":41836,"ELEMENT_SET_NO":999,"REV_AT_EPOCH":3468,"BSTAR":0,"MEAN_MOTION_DOT":-2.88e-6,"MEAN_MOTION_DDOT":0},{"OBJECT_NAME":"GOES 16","OBJECT_ID":"2016-071A","EPOCH":"2026-04-25T21:40:09.937920","MEAN_MOTION":1.00271074,"ECCENTRICITY":0.00015415,"INCLINATION":0.2104,"RA_OF_ASC_NODE":85.2605,"ARG_OF_PERICENTER":248.4731,"MEAN_ANOMALY":100.5078,"EPHEMERIS_TYPE":0,"CLASSIFICATION_TYPE":"U","NORAD_CAT_ID":41866,"ELEMENT_SET_NO":999,"REV_AT_EPOCH":3457,"BSTAR":0,"MEAN_MOTION_DOT":-1.04e-6,"MEAN_MOTION_DDOT":0},{"OBJECT_NAME":"FENGYUN 4A","OBJECT_ID":"2016-077A","EPOCH":"2026-04-25T07:21:11.735712","MEAN_MOTION":1.002671,"ECCENTRICITY":0.00082125,"INCLINATION":2.1903,"RA_OF_ASC_NODE":80.793,"ARG_OF_PERICENTER":141.4993,"MEAN_ANOMALY":225.0593,"EPHEMERIS_TYPE":0,"CLASSIFICATION_TYPE":"U","NORAD_CAT_ID":41882,"ELEMENT_SET_NO":999,"REV_AT_EPOCH":3440,"BSTAR":0,"MEAN_MOTION_DOT":-3.69e-6,"MEAN_MOTION_DDOT":0},{"OBJECT_NAME":"CYGFM05","OBJECT_ID":"2016-078A","EPOCH":"2026-04-25T17:52:31.625472","MEAN_MOTION":15.54375547,"ECCENTRICITY":0.00072828,"INCLINATION":34.9569,"RA_OF_ASC_NODE":247.2436,"ARG_OF_PERICENTER":14.161,"MEAN_ANOMALY":345.9317,"EPHEMERIS_TYPE":0,"CLASSIFICATION_TYPE":"U","NORAD_CAT_ID":41884,"ELEMENT_SET_NO":999,"REV_AT_EPOCH":52058,"BSTAR":0.00034597527,"MEAN_MOTION_DOT":0.00023465,"MEAN_MOTION_DDOT":0},{"OBJECT_NAME":"CYGFM04","OBJECT_ID":"2016-078B","EPOCH":"2026-04-25T16:13:03.278496","MEAN_MOTION":15.58598367,"ECCENTRICITY":0.00061255,"INCLINATION":34.9323,"RA_OF_ASC_NODE":217.8561,"ARG_OF_PERICENTER":59.6695,"MEAN_ANOMALY":300.4634,"EPHEMERIS_TYPE":0,"CLASSIFICATION_TYPE":"U","NORAD_CAT_ID":41885,"ELEMENT_SET_NO":999,"REV_AT_EPOCH":52079,"BSTAR":0.00039249049,"MEAN_MOTION_DOT":0.00031199,"MEAN_MOTION_DDOT":0},{"OBJECT_NAME":"CYGFM02","OBJECT_ID":"2016-078C","EPOCH":"2026-04-25T16:49:00.711552","MEAN_MOTION":15.60946063,"ECCENTRICITY":0.00071756,"INCLINATION":34.9406,"RA_OF_ASC_NODE":213.5628,"ARG_OF_PERICENTER":60.9673,"MEAN_ANOMALY":299.1771,"EPHEMERIS_TYPE":0,"CLASSIFICATION_TYPE":"U","NORAD_CAT_ID":41886,"ELEMENT_SET_NO":999,"REV_AT_EPOCH":52095,"BSTAR":0.00037080036,"MEAN_MOTION_DOT":0.00032262,"MEAN_MOTION_DDOT":0},{"OBJECT_NAME":"CYGFM01","OBJECT_ID":"2016-078D","EPOCH":"2026-04-25T18:07:23.244096","MEAN_MOTION":15.54979339,"ECCENTRICITY":0.0007034,"INCLINATION":34.94,"RA_OF_ASC_NODE":248.6375,"ARG_OF_PERICENTER":7.578,"MEAN_ANOMALY":352.5049,"EPHEMERIS_TYPE":0,"CLASSIFICATION_TYPE":"U","NORAD_CAT_ID":41887,"ELEMENT_SET_NO":999,"REV_AT_EPOCH":52053,"BSTAR":0.00035574439,"MEAN_MOTION_DOT":0.00024675,"MEAN_MOTION_DDOT":0},{"OBJECT_NAME":"CYGFM08","OBJECT_ID":"2016-078E","EPOCH":"2026-04-25T17:37:36.663168","MEAN_MOTION":15.5730883,"ECCENTRICITY":0.00081597,"INCLINATION":34.9432,"RA_OF_ASC_NODE":229.6391,"ARG_OF_PERICENTER":39.3875,"MEAN_ANOMALY":320.7441,"EPHEMERIS_TYPE":0,"CLASSIFICATION_TYPE":"U","NORAD_CAT_ID":41888,"ELEMENT_SET_NO":999,"REV_AT_EPOCH":52078,"BSTAR":0.0003935884,"MEAN_MOTION_DOT":0.00029812,"MEAN_MOTION_DDOT":0},{"OBJECT_NAME":"CYGFM07","OBJECT_ID":"2016-078G","EPOCH":"2026-04-25T16:43:16.824000","MEAN_MOTION":15.57387079,"ECCENTRICITY":0.00065349,"INCLINATION":34.9447,"RA_OF_ASC_NODE":218.2736,"ARG_OF_PERICENTER":58.456,"MEAN_ANOMALY":301.6802,"EPHEMERIS_TYPE":0,"CLASSIFICATION_TYPE":"U","NORAD_CAT_ID":41890,"ELEMENT_SET_NO":999,"REV_AT_EPOCH":52080,"BSTAR":0.000355701,"MEAN_MOTION_DOT":0.00026992,"MEAN_MOTION_DDOT":0},{"OBJECT_NAME":"CYGFM03","OBJECT_ID":"2016-078H","EPOCH":"2026-04-25T16:01:26.290560","MEAN_MOTION":15.57391212,"ECCENTRICITY":0.00058349,"INCLINATION":34.9402,"RA_OF_ASC_NODE":220.4225,"ARG_OF_PERICENTER":44.1998,"MEAN_ANOMALY":315.9192,"EPHEMERIS_TYPE":0,"CLASSIFICATION_TYPE":"U","NORAD_CAT_ID":41891,"ELEMENT_SET_NO":999,"REV_AT_EPOCH":52077,"BSTAR":0.00034728873,"MEAN_MOTION_DOT":0.0002635,"MEAN_MOTION_DDOT":0},{"OBJECT_NAME":"FENGYUN 3D","OBJECT_ID":"2017-072A","EPOCH":"2026-04-25T22:12:27.908064","MEAN_MOTION":14.19727155,"ECCENTRICITY":0.00013667,"INCLINATION":99.0096,"RA_OF_ASC_NODE":89.4142,"ARG_OF_PERICENTER":155.2438,"MEAN_ANOMALY":204.8803,"EPHEMERIS_TYPE":0,"CLASSIFICATION_TYPE":"U","NORAD_CAT_ID":43010,"ELEMENT_SET_NO":999,"REV_AT_EPOCH":43757,"BSTAR":-1.2530354e-5,"MEAN_MOTION_DOT":-7.3e-7,"MEAN_MOTION_DDOT":0},{"OBJECT_NAME":"NOAA 20 (JPSS-1)","OBJECT_ID":"2017-073A","EPOCH":"2026-04-25T20:12:12.227616","MEAN_MOTION":14.19547502,"ECCENTRICITY":0.00021078,"INCLINATION":98.7744,"RA_OF_ASC_NODE":55.7767,"ARG_OF_PERICENTER":73.3563,"MEAN_ANOMALY":286.7844,"EPHEMERIS_TYPE":0,"CLASSIFICATION_TYPE":"U","NORAD_CAT_ID":43013,"ELEMENT_SET_NO":999,"REV_AT_EPOCH":43704,"BSTAR":5.2738677e-5,"MEAN_MOTION_DOT":6.7e-7,"MEAN_MOTION_DDOT":0},{"OBJECT_NAME":"GOES 17","OBJECT_ID":"2018-022A","EPOCH":"2026-04-25T20:49:38.771040","MEAN_MOTION":1.00272049,"ECCENTRICITY":6.724e-5,"INCLINATION":0.8053,"RA_OF_ASC_NODE":86.4106,"ARG_OF_PERICENTER":269.383,"MEAN_ANOMALY":81.0047,"EPHEMERIS_TYPE":0,"CLASSIFICATION_TYPE":"U","NORAD_CAT_ID":43226,"ELEMENT_SET_NO":999,"REV_AT_EPOCH":2989,"BSTAR":0,"MEAN_MOTION_DOT":-1.95e-6,"MEAN_MOTION_DDOT":0},{"OBJECT_NAME":"FENGYUN 2H","OBJECT_ID":"2018-050A","EPOCH":"2026-04-25T22:32:34.910880","MEAN_MOTION":1.00274278,"ECCENTRICITY":0.00017519,"INCLINATION":2.8988,"RA_OF_ASC_NODE":79.6569,"ARG_OF_PERICENTER":159.1021,"MEAN_ANOMALY":32.5834,"EPHEMERIS_TYPE":0,"CLASSIFICATION_TYPE":"U","NORAD_CAT_ID":43491,"ELEMENT_SET_NO":999,"REV_AT_EPOCH":2891,"BSTAR":0,"MEAN_MOTION_DOT":-1.4e-6,"MEAN_MOTION_DDOT":0}]
